[
  {
    "oblast": "BLG",
    "ekatte": "04279",
    "name": "Благоевград",
    "name_en": "Blagoevgrad",
    "region": "BG41",
    "nuts3": "BG413",
    "nuts2": "BG41",
    "nuts1": "BG4",
    "document": 1896,
    "full_name_bul": "гр. Благоевград, общ. Благоевград, обл. Благоевград"
  },
  {
    "oblast": "BGS",
    "ekatte": "07079",
    "name": "Бургас",
    "name_en": "Burgas",
    "region": "BG34",
    "nuts3": "BG341",
    "nuts2": "BG34",
    "nuts1": "BG3",
    "document": 1678,
    "full_name_bul": "гр. Бургас, общ. Бургас, обл. Бургас"
  },
  {
    "oblast": "VAR",
    "ekatte": "10135",
    "name": "Варна",
    "name_en": "Varna",
    "region": "BG33",
    "nuts3": "BG331",
    "nuts2": "BG33",
    "nuts1": "BG3",
    "document": 1896,
    "full_name_bul": "гр. Варна, общ. Варна, обл. Варна"
  },
  {
    "oblast": "VTR",
    "ekatte": "10447",
    "name": "Велико Търново",
    "name_en": "Veliko Tarnovo",
    "region": "BG32",
    "nuts3": "BG321",
    "nuts2": "BG32",
    "nuts1": "BG3",
    "document": 1896,
    "full_name_bul": "гр. Велико Търново, общ. Велико Търново, обл. Велико Търново"
  },
  {
    "oblast": "VID",
    "ekatte": "10971",
    "name": "Видин",
    "name_en": "Vidin",
    "region": "BG31",
    "nuts3": "BG311",
    "nuts2": "BG31",
    "nuts1": "BG3",
    "document": 1896,
    "full_name_bul": "гр. Видин, общ. Видин, обл. Видин"
  },
  {
    "oblast": "VRC",
    "ekatte": "12259",
    "name": "Враца",
    "name_en": "Vratsa",
    "region": "BG31",
    "nuts3": "BG313",
    "nuts2": "BG31",
    "nuts1": "BG3",
    "document": 1483,
    "full_name_bul": "гр. Враца, общ. Враца, обл. Враца"
  },
  {
    "oblast": "GAB",
    "ekatte": "14218",
    "name": "Габрово",
    "name_en": "Gabrovo",
    "region": "BG32",
    "nuts3": "BG322",
    "nuts2": "BG32",
    "nuts1": "BG3",
    "document": 1483,
    "full_name_bul": "гр. Габрово, общ. Габрово, обл. Габрово"
  },
  {
    "oblast": "DOB",
    "ekatte": "72624",
    "name": "Добрич",
    "name_en": "Dobrich",
    "region": "BG33",
    "nuts3": "BG332",
    "nuts2": "BG33",
    "nuts1": "BG3",
    "document": 1483,
    "full_name_bul": "гр. Добрич, общ. Добрич, обл. Добрич"
  },
  {
    "oblast": "KRZ",
    "ekatte": "40909",
    "name": "Кърджали",
    "name_en": "Kardzhali",
    "region": "BG42",
    "nuts3": "BG425",
    "nuts2": "BG42",
    "nuts1": "BG4",
    "document": 1483,
    "full_name_bul": "гр. Кърджали, общ. Кърджали, обл. Кърджали"
  },
  {
    "oblast": "KNL",
    "ekatte": "41112",
    "name": "Кюстендил",
    "name_en": "Kyustendil",
    "region": "BG41",
    "nuts3": "BG415",
    "nuts2": "BG41",
    "nuts1": "BG4",
    "document": 1483,
    "full_name_bul": "гр. Кюстендил, общ. Кюстендил, обл. Кюстендил"
  },
  {
    "oblast": "LOV",
    "ekatte": "43952",
    "name": "Ловеч",
    "name_en": "Lovech",
    "region": "BG31",
    "nuts3": "BG315",
    "nuts2": "BG31",
    "nuts1": "BG3",
    "document": 1896,
    "full_name_bul": "гр. Ловеч, общ. Ловеч, обл. Ловеч"
  },
  {
    "oblast": "MON",
    "ekatte": "48489",
    "name": "Монтана",
    "name_en": "Montana",
    "region": "BG31",
    "nuts3": "BG312",
    "nuts2": "BG31",
    "nuts1": "BG3",
    "document": 1483,
    "full_name_bul": "гр. Монтана, общ. Монтана, обл. Монтана"
  },
  {
    "oblast": "PAZ",
    "ekatte": "55155",
    "name": "Пазарджик",
    "name_en": "Pazardzhik",
    "region": "BG42",
    "nuts3": "BG423",
    "nuts2": "BG42",
    "nuts1": "BG4",
    "document": 1862,
    "full_name_bul": "гр. Пазарджик, общ. Пазарджик, обл. Пазарджик"
  },
  {
    "oblast": "PER",
    "ekatte": "55871",
    "name": "Перник",
    "name_en": "Pernik",
    "region": "BG41",
    "nuts3": "BG414",
    "nuts2": "BG41",
    "nuts1": "BG4",
    "document": 1483,
    "full_name_bul": "гр. Перник, общ. Перник, обл. Перник"
  },
  {
    "oblast": "PVN",
    "ekatte": "56722",
    "name": "Плевен",
    "name_en": "Pleven",
    "region": "BG31",
    "nuts3": "BG314",
    "nuts2": "BG31",
    "nuts1": "BG3",
    "document": 1483,
    "full_name_bul": "гр. Плевен, общ. Плевен, обл. Плевен"
  },
  {
    "oblast": "PDV",
    "ekatte": "56784",
    "name": "Пловдив",
    "name_en": "Plovdiv",
    "region": "BG42",
    "nuts3": "BG421",
    "nuts2": "BG42",
    "nuts1": "BG4",
    "document": 1483,
    "full_name_bul": "гр. Пловдив, общ. Пловдив, обл. Пловдив"
  },
  {
    "oblast": "RAZ",
    "ekatte": "61710",
    "name": "Разград",
    "name_en": "Razgrad",
    "region": "BG32",
    "nuts3": "BG324",
    "nuts2": "BG32",
    "nuts1": "BG3",
    "document": 1483,
    "full_name_bul": "гр. Разград, общ. Разград, обл. Разград"
  },
  {
    "oblast": "RSE",
    "ekatte": "63427",
    "name": "Русе",
    "name_en": "Ruse",
    "region": "BG32",
    "nuts3": "BG323",
    "nuts2": "BG32",
    "nuts1": "BG3",
    "document": 1896,
    "full_name_bul": "гр. Русе, общ. Русе, обл. Русе"
  },
  {
    "oblast": "SLS",
    "ekatte": "66425",
    "name": "Силистра",
    "name_en": "Silistra",
    "region": "BG32",
    "nuts3": "BG325",
    "nuts2": "BG32",
    "nuts1": "BG3",
    "document": 1483,
    "full_name_bul": "гр. Силистра, общ. Силистра, обл. Силистра"
  },
  {
    "oblast": "SLV",
    "ekatte": "67338",
    "name": "Сливен",
    "name_en": "Sliven",
    "region": "BG34",
    "nuts3": "BG342",
    "nuts2": "BG34",
    "nuts1": "BG3",
    "document": 1896,
    "full_name_bul": "гр. Сливен, общ. Сливен, обл. Сливен"
  },
  {
    "oblast": "SML",
    "ekatte": "67653",
    "name": "Смолян",
    "name_en": "Smolyan",
    "region": "BG42",
    "nuts3": "BG424",
    "nuts2": "BG42",
    "nuts1": "BG4",
    "document": 1483,
    "full_name_bul": "гр. Смолян, общ. Смолян, обл. Смолян"
  },
  {
    "oblast": "SFO",
    "ekatte": "68134",
    "name": "София",
    "name_en": "Sofia",
    "region": "BG41",
    "nuts3": "BG412",
    "nuts2": "BG41",
    "nuts1": "BG4",
    "document": 1483,
    "full_name_bul": "гр. София, общ. Столична, обл. София (столица)"
  },
  {
    "oblast": "SOF",
    "ekatte": "68134",
    "name": "София (столица)",
    "name_en": "Sofia (stolitsa)",
    "region": "BG41",
    "nuts3": "BG411",
    "nuts2": "BG41",
    "nuts1": "BG4",
    "document": 1483,
    "full_name_bul": "гр. София, общ. Столична, обл. София (столица)"
  },
  {
    "oblast": "SZR",
    "ekatte": "68850",
    "name": "Стара Загора",
    "name_en": "Stara Zagora",
    "region": "BG34",
    "nuts3": "BG344",
    "nuts2": "BG34",
    "nuts1": "BG3",
    "document": 1896,
    "full_name_bul": "гр. Стара Загора, общ. Стара Загора, обл. Стара Загора"
  },
  {
    "oblast": "TGV",
    "ekatte": "73626",
    "name": "Търговище",
    "name_en": "Targovishte",
    "region": "BG33",
    "nuts3": "BG334",
    "nuts2": "BG33",
    "nuts1": "BG3",
    "document": 1483,
    "full_name_bul": "гр. Търговище, общ. Търговище, обл. Търговище"
  },
  {
    "oblast": "HKV",
    "ekatte": "77195",
    "name": "Хасково",
    "name_en": "Haskovo",
    "region": "BG42",
    "nuts3": "BG422",
    "nuts2": "BG42",
    "nuts1": "BG4",
    "document": 1896,
    "full_name_bul": "гр. Хасково, общ. Хасково, обл. Хасково"
  },
  {
    "oblast": "SHU",
    "ekatte": "83510",
    "name": "Шумен",
    "name_en": "Shumen",
    "region": "BG33",
    "nuts3": "BG333",
    "nuts2": "BG33",
    "nuts1": "BG3",
    "document": 1896,
    "full_name_bul": "гр. Шумен, общ. Шумен, обл. Шумен"
  },
  {
    "oblast": "JAM",
    "ekatte": "87374",
    "name": "Ямбол",
    "name_en": "Yambol",
    "region": "BG34",
    "nuts3": "BG343",
    "nuts2": "BG34",
    "nuts1": "BG3",
    "document": 1483,
    "full_name_bul": "гр. Ямбол, общ. Ямбол, обл. Ямбол"
  }
]
